[{"OBJECT_NAME":"SHIYAN-6 01 (SY-6 01)","OBJECT_ID":"2018-094B","EPOCH":"2026-03-09T23:04:36.967872","MEAN_MOTION":15.28649156,"ECCENTRICITY":0.00144834,"INCLINATION":97.3669,"RA_OF_ASC_NODE":84.0964,"ARG_OF_PERICENTER":135.6758,"MEAN_ANOMALY":224.5644,"EPHEMERIS_TYPE":0,"CLASSIFICATION_TYPE":"U","NORAD_CAT_ID":43711,"ELEMENT_SET_NO":999,"REV_AT_EPOCH":40632,"BSTAR":0.00024768444,"MEAN_MOTION_DOT":6.847e-5,"MEAN_MOTION_DDOT":0},{"OBJECT_NAME":"STARLINK-32416","OBJECT_ID":"2024-187R","EPOCH":"2026-03-09T23:13:24.880512","MEAN_MOTION":15.30191727,"ECCENTRICITY":0.00011293,"INCLINATION":53.1604,"RA_OF_ASC_NODE":48.291,"ARG_OF_PERICENTER":72.6849,"MEAN_ANOMALY":287.4276,"EPHEMERIS_TYPE":0,"CLASSIFICATION_TYPE":"U","NORAD_CAT_ID":61589,"ELEMENT_SET_NO":999,"REV_AT_EPOCH":7934,"BSTAR":5.3882708e-5,"MEAN_MOTION_DOT":1.237e-5,"MEAN_MOTION_DDOT":0}]
